[
    {
        "id":"1",
        "PlaceName":"Warangal fort",
        "Image":"",
        "Location":"https://maps.app.goo.gl/2Mtx97awWgKWkqtb9",
        "Timing":"6AM-8PM"
    },


    {
        "id":"2",
        "PlaceName":"GWMC Public Garden",
        "Image":"",
        "Location":"https://maps.app.goo.gl/HwQXLqbUEEnDcXXC6",
        "Timing":"4AM-9PM"
    },

    {
        "id":"3",
        "PlaceName":"Kakatiya Zoological Park",
        "Image":"",
        "Location":"https://maps.app.goo.gl/bqxGBuhmPi7caWx4A",
        "Timing":"9AM-5PM"
    },

    {
        "id":"4",
        "PlaceName":"Ekashila Lake & Children Garden",
        "Image":"",
        "Location":"https://maps.app.goo.gl/WwGNFPCe3N76BTbz6",
        "Timing":"6AM-7PM"
    },

    {
        "id":"5",
        "PlaceName":"Bhadrakali Geo-Bio Diversity Cultural Park",
        "Image":"",
        "Location":"https://maps.app.goo.gl/NLfSfyHaw7aAZFAG8",
        "Timing":"8AM-9PM"
    },

    {
        "id":"6",
        "PlaceName":"Regional Science Center Warangal",
        "Image":"",
        "Location":"https://maps.app.goo.gl/QVrag7byZX3UsSsj6",
        "Timing":"10AM-5PM"
    },

    {
        "id":"7",
        "PlaceName":"Kakatiya Musical Garden",
        "Image":"",
        "Location":"https://maps.app.goo.gl/idBBCoFUW6TL8Tca7",
        "Timing":"9AM-8PM"
    },

    {
        "id":"8",
        "PlaceName":"Ekashila Park prof jaya shankar park",
        "Image":"",
        "Location":"https://maps.app.goo.gl/fR918MWfV2gNhE2Q7",
        "Timing":"5AM-9PM"
    },

    {
        "id":"9",
        "PlaceName":"Warangal Club Swimming Pool",
        "Image":"",
        "Location":"https://maps.app.goo.gl/6EB6nHjMPuY5FvnaA",
        "Timing":"6AM-7PM"
    },

    {
        "id":"10",
        "PlaceName":"District Sports Authority Swimming pool",
        "Image":"",
        "Location":"https://maps.app.goo.gl/j79zgpDzBA7n8RuR7",
        "Timing":"9AM-6PM"
    },


    {
        "id":"11",
        "PlaceName":"The Corner kick-Sports And Food ARENA",
        "Image":"",
        "Location":"https://maps.app.goo.gl/ym7ANFS7kYqEfRg3A",
        "Timing":"6AM-11PM"
    },


    {
        "id":"12",
        "PlaceName":"Birla school swimming pool",
        "Image":"",
        "Location":"https://maps.app.goo.gl/GQpb91gaW39wSizx8",
        "Timing":"6AM-8AM,4PM-8PM"
    },

    {
        "id":"13",
        "PlaceName":"NS BOX CRICKET - Best Turf Cricket ( Waddepally)",
        "Image":"",
        "Location":"https://maps.app.goo.gl/DtBD5hSQDHtFisnB9",
        "Timing":"5AM-11PM"
    },

    {
        "id":"14",
        "PlaceName":"Nirvana GameZone",
        "Image":"",
        "Location":"https://maps.app.goo.gl/97jpENpakV4sDGaN9",
        "Timing":"11AM-9PM"
    },

    {
        "id":"15",
        "PlaceName":"Wadapally lake",
        "Image":"",
        "Location":"https://maps.app.goo.gl/q8R95tvv4Wh5rFsi7",
        "Timing":"6AM-9PM"
    },

    {
        "id":"16",
        "PlaceName":"Kush Mahal",
        "Image":"",
        "Location":"https://maps.app.goo.gl/5RhcKS7TEjVMiL1eA",
        "Timing":"8AM-6PM"
    }
]






    
